{"fetched_at":"2026-03-29T02:12:04Z","count":15717,"tles":[{"name":"GPS BIIF-3  (PRN 24)","line1":"1 38833U 12053A   26086.05261588 -.00000004  00000+0  00000+0 0  9996","line2":"2 38833  53.5685 146.9649 0177237  64.9128 296.9786  2.00566077 97797","category":"GPS"}]}